{
  "type": "FeatureCollection",
  "features": [
    {
      "type": "Feature",
      "properties": {
        "norad_id": 37484,
        "name": "COSMOS 2251 DEB",
        "group": "cosmos-2251-debris",
        "lat": 52.62776806663979,
        "lon": -131.1813068875849,
        "alt_km": 775.7334686621853,
        "timestamp": "2025-12-13T18:50:04.828278+00:00",
        "meta_object_name": "COSMOS 2251 DEB",
        "meta_object_id": "1993-036BLM",
        "meta_epoch": "2025-12-08T23:58:05.079360",
        "meta_mean_motion": 14.41757676,
        "meta_eccentricity": 0.0040001,
        "meta_inclination": 73.8236,
        "meta_ra_of_asc_node": 215.4631,
        "meta_arg_of_pericenter": 250.9229,
        "meta_mean_anomaly": 173.1342,
        "meta_ephemeris_type": 0,
        "meta_classification_type": "U",
        "meta_norad_cat_id": 37484,
        "meta_element_set_no": 999,
        "meta_rev_at_epoch": 65325,
        "meta_bstar": 0.00081064,
        "meta_mean_motion_dot": 2.644e-05,
        "meta_mean_motion_ddot": 0,
        "tle_line1": "1 37484U 93036BLM 25342.99866990  .00002644  00000+0  81064-3 0  9996",
        "tle_line2": "2 37484  73.8236 215.4631 0040001 250.9229 173.1342 14.41757676653253"
      },
      "geometry": {
        "type": "Point",
        "coordinates": [
          -131.1813068875849,
          52.62776806663979
        ]
      }
    },
    {
      "type": "Feature",
      "properties": {
        "norad_id": 37486,
        "name": "COSMOS 2251 DEB",
        "group": "cosmos-2251-debris",
        "lat": -25.107132675606397,
        "lon": -59.40543926476641,
        "alt_km": 967.5126184719056,
        "timestamp": "2025-12-13T18:50:04.828289+00:00",
        "meta_object_name": "COSMOS 2251 DEB",
        "meta_object_id": "1993-036BLP",
        "meta_epoch": "2025-12-13T01:24:59.270976",
        "meta_mean_motion": 14.1332704,
        "meta_eccentricity": 0.02295334,
        "meta_inclination": 73.6912,
        "meta_ra_of_asc_node": 114.021,
        "meta_arg_of_pericenter": 342.0741,
        "meta_mean_anomaly": 134.7179,
        "meta_ephemeris_type": 0,
        "meta_classification_type": "U",
        "meta_norad_cat_id": 37486,
        "meta_element_set_no": 999,
        "meta_rev_at_epoch": 63374,
        "meta_bstar": 0.0028356833,
        "meta_mean_motion_dot": 6.817e-05,
        "meta_mean_motion_ddot": 0,
        "tle_line1": "1 37486U 93036BLP 25347.05901934  .00006817  00000+0  28357-2 0  9999",
        "tle_line2": "2 37486  73.6912 114.0210 0229533 342.0741 134.7179 14.13327040633742"
      },
      "geometry": {
        "type": "Point",
        "coordinates": [
          -59.40543926476641,
          -25.107132675606397
        ]
      }
    },
    {
      "type": "Feature",
      "properties": {
        "norad_id": 37487,
        "name": "COSMOS 2251 DEB",
        "group": "cosmos-2251-debris",
        "lat": -15.008063670810563,
        "lon": 14.451021282579726,
        "alt_km": 647.7910926846807,
        "timestamp": "2025-12-13T18:50:04.828299+00:00",
        "meta_object_name": "COSMOS 2251 DEB",
        "meta_object_id": "1993-036BLQ",
        "meta_epoch": "2025-12-12T06:17:24.389376",
        "meta_mean_motion": 14.80982589,
        "meta_eccentricity": 0.00255931,
        "meta_inclination": 73.9026,
        "meta_ra_of_asc_node": 193.0379,
        "meta_arg_of_pericenter": 31.2136,
        "meta_mean_anomaly": 329.0553,
        "meta_ephemeris_type": 0,
        "meta_classification_type": "U",
        "meta_norad_cat_id": 37487,
        "meta_element_set_no": 999,
        "meta_rev_at_epoch": 81238,
        "meta_bstar": 0.0042593386,
        "meta_mean_motion_dot": 0.00033302,
        "meta_mean_motion_ddot": 0,
        "tle_line1": "1 37487U 93036BLQ 25346.26208784  .00033302  00000+0  42593-2 0  9992",
        "tle_line2": "2 37487  73.9026 193.0379 0025593  31.2136 329.0553 14.80982589812383"
      },
      "geometry": {
        "type": "Point",
        "coordinates": [
          14.451021282579726,
          -15.008063670810563
        ]
      }
    },
    {
      "type": "Feature",
      "properties": {
        "norad_id": 37491,
        "name": "COSMOS 2251 DEB",
        "group": "cosmos-2251-debris",
        "lat": -71.76614494772019,
        "lon": -148.86603933100193,
        "alt_km": 760.0483551186844,
        "timestamp": "2025-12-13T18:50:04.828309+00:00",
        "meta_object_name": "COSMOS 2251 DEB",
        "meta_object_id": "1993-036BLU",
        "meta_epoch": "2025-12-13T01:45:30.730176",
        "meta_mean_motion": 13.75293127,
        "meta_eccentricity": 0.0317327,
        "meta_inclination": 73.9056,
        "meta_ra_of_asc_node": 273.5324,
        "meta_arg_of_pericenter": 266.5527,
        "meta_mean_anomaly": 89.9253,
        "meta_ephemeris_type": 0,
        "meta_classification_type": "U",
        "meta_norad_cat_id": 37491,
        "meta_element_set_no": 999,
        "meta_rev_at_epoch": 55751,
        "meta_bstar": 0.0017222732,
        "meta_mean_motion_dot": 2.36e-05,
        "meta_mean_motion_ddot": 0,
        "tle_line1": "1 37491U 93036BLU 25347.07327234  .00002360  00000+0  17223-2 0  9991",
        "tle_line2": "2 37491  73.9056 273.5324 0317327 266.5527  89.9253 13.75293127557517"
      },
      "geometry": {
        "type": "Point",
        "coordinates": [
          -148.86603933100193,
          -71.76614494772019
        ]
      }
    },
    {
      "type": "Feature",
      "properties": {
        "norad_id": 37498,
        "name": "COSMOS 2251 DEB",
        "group": "cosmos-2251-debris",
        "lat": -72.86397274415248,
        "lon": 70.09774820707226,
        "alt_km": 708.996946319905,
        "timestamp": "2025-12-13T18:50:04.828320+00:00",
        "meta_object_name": "COSMOS 2251 DEB",
        "meta_object_id": "1993-036BMB",
        "meta_epoch": "2025-12-10T07:06:15.238080",
        "meta_mean_motion": 14.54745919,
        "meta_eccentricity": 0.0012071,
        "meta_inclination": 74.0358,
        "meta_ra_of_asc_node": 188.5072,
        "meta_arg_of_pericenter": 251.507,
        "meta_mean_anomaly": 108.4781,
        "meta_ephemeris_type": 0,
        "meta_classification_type": "U",
        "meta_norad_cat_id": 37498,
        "meta_element_set_no": 999,
        "meta_rev_at_epoch": 65319,
        "meta_bstar": 0.0008921,
        "meta_mean_motion_dot": 3.798e-05,
        "meta_mean_motion_ddot": 0,
        "tle_line1": "1 37498U 93036BMB 25344.29600970  .00003798  00000+0  89210-3 0  9992",
        "tle_line2": "2 37498  74.0358 188.5072 0012071 251.5070 108.4781 14.54745919653194"
      },
      "geometry": {
        "type": "Point",
        "coordinates": [
          70.09774820707226,
          -72.86397274415248
        ]
      }
    },
    {
      "type": "Feature",
      "properties": {
        "norad_id": 37499,
        "name": "COSMOS 2251 DEB",
        "group": "cosmos-2251-debris",
        "lat": 37.46572872258633,
        "lon": -27.05215131872233,
        "alt_km": 754.918103318656,
        "timestamp": "2025-12-13T18:50:04.828331+00:00",
        "meta_object_name": "COSMOS 2251 DEB",
        "meta_object_id": "1993-036BMC",
        "meta_epoch": "2025-12-13T05:15:43.098912",
        "meta_mean_motion": 14.34343194,
        "meta_eccentricity": 0.0026945,
        "meta_inclination": 74.0378,
        "meta_ra_of_asc_node": 321.3119,
        "meta_arg_of_pericenter": 37.1845,
        "meta_mean_anomaly": 323.1166,
        "meta_ephemeris_type": 0,
        "meta_classification_type": "U",
        "meta_norad_cat_id": 37499,
        "meta_element_set_no": 999,
        "meta_rev_at_epoch": 85156,
        "meta_bstar": 0.00027013479,
        "meta_mean_motion_dot": 7.36e-06,
        "meta_mean_motion_ddot": 0,
        "tle_line1": "1 37499U 93036BMC 25347.21924883  .00000736  00000+0  27013-3 0  9992",
        "tle_line2": "2 37499  74.0378 321.3119 0026945  37.1845 323.1166 14.34343194851560"
      },
      "geometry": {
        "type": "Point",
        "coordinates": [
          -27.05215131872233,
          37.46572872258633
        ]
      }
    },
    {
      "type": "Feature",
      "properties": {
        "norad_id": 37528,
        "name": "COSMOS 2251 DEB",
        "group": "cosmos-2251-debris",
        "lat": -68.69086240424703,
        "lon": -12.620526660881346,
        "alt_km": 716.1851793357046,
        "timestamp": "2025-12-13T18:50:04.828341+00:00",
        "meta_object_name": "COSMOS 2251 DEB",
        "meta_object_id": "1993-036BNH",
        "meta_epoch": "2025-12-13T02:45:39.802464",
        "meta_mean_motion": 14.50523358,
        "meta_eccentricity": 0.0021121,
        "meta_inclination": 74.0372,
        "meta_ra_of_asc_node": 121.4319,
        "meta_arg_of_pericenter": 269.4777,
        "meta_mean_anomaly": 90.3963,
        "meta_ephemeris_type": 0,
        "meta_classification_type": "U",
        "meta_norad_cat_id": 37528,
        "meta_element_set_no": 999,
        "meta_rev_at_epoch": 85936,
        "meta_bstar": 0.00078708351,
        "meta_mean_motion_dot": 3.064e-05,
        "meta_mean_motion_ddot": 0,
        "tle_line1": "1 37528U 93036BNH 25347.11504401  .00003064  00000+0  78708-3 0  9998",
        "tle_line2": "2 37528  74.0372 121.4319 0021121 269.4777  90.3963 14.50523358859367"
      },
      "geometry": {
        "type": "Point",
        "coordinates": [
          -12.620526660881346,
          -68.69086240424703
        ]
      }
    }
  ]
}